1 27424U 02022A   11264.15521378  .00000841  00000-0  19668-3 0   707
2 27424 098.2021 203.4116 0001397 087.3679 272.7691 14.57117622499046